STARLINK-11162 [DTC]    
1 60123U 24118L   25253.67188384 -.00000737  00000+0 -12264-5 0  9998
2 60123  53.1588  28.3779 0000895  70.8339 289.2775 15.69733067 69723
STARLINK-11161 [DTC]    
1 60124U 24118M   25253.66707999 -.00004899  00000+0 -35545-4 0  9996
2 60124  53.1593  29.0803 0000588  65.2950 294.8129 15.69749327 69712
STARLINK-11160 [DTC]    
1 60125U 24118N   25253.62294167  .00009168  00000+0  80402-4 0  9995
2 60125  53.1585  28.7852 0000939  97.7620 262.3505 15.69722701 69713
STARLINK-31846          
1 60126U 24118P   25253.40024595  .00003290  00000+0  12319-3 0  9999
2 60126  53.1611 144.1166 0001072  86.5196 273.5928 15.30193179 68090
STARLINK-31840          
1 60127U 24118Q   25253.40658587  .00001855  00000+0  74772-4 0  9991
2 60127  53.1604 144.1599 0001122  89.9627 270.1503 15.30185564 68096
STARLINK-31813          
1 60128U 24118R   25253.40342685  .00001830  00000+0  73921-4 0  9999
2 60128  53.1604 144.1411 0000768 136.5716 223.5346 15.30184164 68095
STARLINK-31845          
1 60129U 24118S   25253.40077820  .00002375  00000+0  92332-4 0  9998
2 60129  53.1600 141.9846 0001102  94.8050 265.3077 15.30185732 68120
STARLINK-31838          
1 60130U 24118T   25253.41291135  .00007341  00000+0  25969-3 0  9997
2 60130  53.1600 144.1947 0001182  79.7974 280.3160 15.30203677 68099
STARLINK-31785          
1 60131U 24118U   25253.39602865  .00002730  00000+0  10430-3 0  9995
2 60131  53.1596 144.0906 0001011  95.7863 264.3253 15.30190914 68098
STARLINK-31792          
1 60132U 24118V   25252.99199665  .00002196  00000+0  86276-4 0  9998
2 60132  53.1591 143.6588 0001115  69.4228 290.6892 15.30191206 68066
STARLINK-32043          
1 60135U 24120A   25253.78977155 -.00000040  00000+0  10762-4 0  9994
2 60135  53.1607  75.4712 0000994  80.8158 279.2955 15.30200533 68833
STARLINK-32112          
1 60136U 24120B   25253.23360038  .00004132  00000+0  15160-3 0  9992
2 60136  53.1610  78.4028 0001029  99.1465 260.9652 15.30188214 68826
STARLINK-32050          
1 60137U 24120C   25253.23993472  .00000763  00000+0  37904-4 0  9994
2 60137  53.1611  78.4445 0001040  87.7940 272.3180 15.30184869 68741
STARLINK-32025          
1 60138U 24120D   25253.25037203  .00000634  00000+0  33555-4 0  9993
2 60138  53.1604  77.7942 0001128  85.0981 275.0149 15.30187392 68751
STARLINK-31867          
1 60139U 24120E   25253.75085085 -.00001541  00000+0 -39925-4 0  9997
2 60139  53.1622  75.9505 0001108  96.3577 263.7550 15.30187581 68829
STARLINK-31694          
1 60140U 24120F   25253.75406292 -.00006522  00000+0 -20869-3 0  9996
2 60140  53.1607  75.9632 0002306  23.0031 337.1073 15.30127380 68904
STARLINK-32036          
1 60141U 24120G   25253.75294949 -.00001938  00000+0 -53355-4 0  9994
2 60141  53.1605  75.9562 0000257 312.2138  47.8841 15.30195097 68907
STARLINK-32031          
1 60142U 24120H   25253.74663141  .00001138  00000+0  50539-4 0  9999
2 60142  53.1619  75.9145 0000928 113.4325 246.6773 15.30189436 68907
STARLINK-32027          
1 60143U 24120J   25253.50740532 -.00001336  00000+0 -33006-4 0  9996
2 60143  53.1613  76.5154 0001123  88.8466 271.2663 15.30191688 68878
STARLINK-32033          
1 60144U 24120K   25253.80877219 -.00001249  00000+0 -30079-4 0  9993
2 60144  53.1609  75.5908 0001025  89.2209 270.8909 15.30191470 68834
STARLINK-32029          
1 60145U 24120L   25253.80243680  .00000028  00000+0  13056-4 0  9991
2 60145  53.1607  75.5505 0001131  99.3167 260.7962 15.30197536 68835
STARLINK-32127          
1 60146U 24120M   25253.50530209 -.00000522  00000+0 -55061-5 0  9999
2 60146  53.1615  76.5446 0001090  87.7681 272.3445 15.30188266 68796
STARLINK-32019          
1 60147U 24120N   25253.77605718 -.00000693  00000+0 -11265-4 0  9993
2 60147  53.1611  75.3851 0001085  82.6827 277.4297 15.30191588 68837
STARLINK-32021          
1 60148U 24120P   25252.73742897  .00000565  00000+0  31203-4 0  9999
2 60148  53.1617  70.3299 0001011  94.2451 265.8665 15.30192455 68896
STARLINK-32022          
1 60149U 24120Q   25253.79293993  .00000642  00000+0  33799-4 0  9993
2 60149  53.1605  75.4889 0000850  75.2895 284.8200 15.30183794 68911
STARLINK-32014          
1 60150U 24120R   25252.80371974  .00001737  00000+0  70767-4 0  9994
2 60150  53.1610  79.9807 0000862  81.0900 279.0199 15.30188696 68686
STARLINK-32004          
1 60151U 24120S   25253.78660606 -.00000434  00000+0 -25370-5 0  9992
2 60151  53.1608  75.4494 0001131  79.6077 280.5052 15.30198350 68914
STARLINK-32147          
1 60152U 24120T   25253.23466364 -.00000911  00000+0 -18653-4 0  9993
2 60152  53.1616  78.4073 0001286 104.0651 256.0493 15.30170820 68742
STARLINK-32131          
1 60153U 24120U   25253.80560963 -.00000760  00000+0 -13535-4 0  9993
2 60153  53.1612  75.5696 0000960  92.8327 267.2784 15.30192800 68918
STARLINK-32145          
1 60154U 24120V   25252.79950191 -.00001168  00000+0 -27347-4 0  9996
2 60154  53.1602  79.9555 0000988  86.3011 273.8103 15.30180449 68686
STARLINK-32137          
1 60155U 24120W   25253.79610702 -.00000271  00000+0  29603-5 0  9990
2 60155  53.1610  75.5082 0000970  83.3920 276.7192 15.30195053 68834
STARLINK-32048          
1 60156U 24120X   25253.79926911  .00000127  00000+0  16410-4 0  9993
2 60156  53.1610  75.5282 0001040  84.8194 275.2925 15.30198964 68837
STARLINK-32129          
1 60157U 24120Y   25253.24098666  .00000899  00000+0  42475-4 0  9997
2 60157  53.1609  78.4458 0001162  85.0576 275.0558 15.30187142 68820
STARLINK-11168 [DTC]    
1 60183U 24124A   25253.49561040 -.00003111  00000+0 -20809-4 0  9997
2 60183  53.1589 329.4697 0001422  80.1617 279.9562 15.69728996 69426
STARLINK-11187 [DTC]    
1 60184U 24124B   25253.49070179 -.00002511  00000+0 -15861-4 0  9991
2 60184  53.1584 329.4372 0000979  83.6508 276.4621 15.69731665 68238
STARLINK-11180 [DTC]    
1 60185U 24124C   25253.48579427 -.00002335  00000+0 -14407-4 0  9990
2 60185  53.1580 329.4045 0000926  95.4277 264.6846 15.69733652 68234
STARLINK-11197 [DTC]    
1 60186U 24124D   25252.52586540  .00002088  00000+0  22109-4 0  9990
2 60186  53.1594 334.0808 0001116  92.6316 267.4829 15.69684573 68086
STARLINK-11194 [DTC]    
1 60187U 24124E   25252.52095386 -.00000131  00000+0  37814-5 0  9992
2 60187  53.1586 334.0490 0001237  89.1199 270.9961 15.69700974 68089
STARLINK-11189 [DTC]    
1 60188U 24124F   25253.21652831 -.00005754  00000+0 -42625-4 0  9996
2 60188  53.1589 331.2966 0002355  95.5605 264.5682 15.69719881 68182
STARLINK-11183 [DTC]    
1 60189U 24124G   25253.21160533 -.00002366  00000+0 -14670-4 0  9995
2 60189  53.1585 331.2621 0000800  98.3445 261.7664 15.69725008 68180
STARLINK-11179 [DTC]    
1 60190U 24124H   25252.95202972  .00001144  00000+0  14308-4 0  9990
2 60190  53.1588 332.4877 0000989  81.0232 279.0898 15.69693232 68142
STARLINK-11175 [DTC]    
1 60191U 24124J   25253.52013955  .00053868  00000+0  44612-3 0  9996
2 60191  53.1572 329.6294 0001153  80.4995 279.6154 15.69735994 68233
STARLINK-11173 [DTC]    
1 60192U 24124K   25253.51523104 -.00001672  00000+0 -89408-5 0  9990
2 60192  53.1601 329.5949 0000782  55.4676 304.6416 15.69726552 68238
STARLINK-11172 [DTC]    
1 60193U 24124L   25253.51032523 -.00001313  00000+0 -59762-5 0  9993
2 60193  53.1597 329.5631 0001162  98.5979 261.5171 15.69721423 68239
STARLINK-11152 [DTC]    
1 60194U 24124M   25253.50541546 -.00002434  00000+0 -15224-4 0  9992
2 60194  53.1587 329.5288 0001047  82.4915 277.6222 15.69734799 69428
STARLINK-11193 [DTC]    
1 60195U 24124N   25253.50051670  .00014887  00000+0  12743-3 0  9992
2 60195  53.1571 329.4966 0001118  71.9205 288.1935 15.69725580 68232
STARLINK-31869          
1 60196U 24124P   25253.79142039  .00000113  00000+0  15928-4 0  9990
2 60196  53.1588  78.0209 0001149  81.3504 278.7627 15.30210593 66758
STARLINK-32023          
1 60197U 24124Q   25253.49967722  .00000438  00000+0  26904-4 0  9998
2 60197  53.1609  79.7570 0001199  91.0973 269.0166 15.30188173 66709
STARLINK-32046          
1 60198U 24124R   25253.80303127 -.00000349  00000+0  34386-6 0  9994
2 60198  53.1606  78.0907 0001054  82.2555 277.8565 15.30198418 67985
STARLINK-32049          
1 60199U 24124S   25253.81674786  .00001022  00000+0  46638-4 0  9997
2 60199  53.1614  78.1790 0001308  83.2340 276.8810 15.30187636 67983
STARLINK-32002          
1 60200U 24124T   25253.73877419  .00000870  00000+0  41510-4 0  9993
2 60200  53.1607  78.4017 0001161  97.8312 262.2821 15.30194425 66748
STARLINK-32020          
1 60201U 24124U   25253.71133085 -.00000851  00000+0 -16624-4 0  9995
2 60201  53.1614  78.2293 0001031  77.2729 282.8387 15.30194620 66743
STARLINK-32041          
1 60202U 24124V   25253.80091880  .00000792  00000+0  38846-4 0  9994
2 60202  53.1605  78.0758 0000861  86.7292 273.3807 15.30193522 67954
STARLINK-32138          
1 60255U 24131A   25253.79222810  .00000572  00000+0  31435-4 0  9990
2 60255  53.1605 168.1724 0001346 107.0974 253.0175 15.30212196 64475
STARLINK-32212          
1 60256U 24131B   25253.47832474  .00001665  00000+0  68323-4 0  9999
2 60256  53.1597 169.7790 0001045  98.2926 261.8193 15.30194192 64124
STARLINK-32166          
1 60257U 24131C   25253.48465755 -.00000001  00000+0  12078-4 0  9995
2 60257  53.1606 169.8062 0001072 100.5554 259.5567 15.30193730 64129
STARLINK-32200          
1 60258U 24131D   25253.47620952  .00000906  00000+0  42718-4 0  9994
2 60258  53.1595 169.7550 0000902  98.0516 262.0588 15.30193291 64122
STARLINK-32207          
1 60259U 24131E   25253.47410787  .00001125  00000+0  50116-4 0  9993
2 60259  53.1608 169.7527 0001274  82.1552 277.9593 15.30192610 64124
STARLINK-32125          
1 60260U 24131F   25253.48876852  .00002976  00000+0  11259-3 0  9994
2 60260  53.1623 169.1182 0001155  94.5572 265.5561 15.30196647 64134
